FENGYUN 1C DEB          
1 36262U 99025DWP 17345.52404297  .00000118  00000-0  68884-4 0  9995
2 36262  98.9064 101.6419 0063619  56.4658 304.2576 14.24676381478488
